{
  "type": "FeatureCollection",
  "features": [
    {
      "type": "Feature",
      "properties": {
        "norad_id": 45344,
        "name": "BEIDOU-3 G2 (C60)",
        "group": "gnss",
        "lat": 2.225035240251098,
        "lon": 161.80989462197408,
        "alt_km": 35789.53309650228,
        "timestamp": "2025-12-18T23:35:49.302326+00:00",
        "meta_object_name": "BEIDOU-3 G2 (C60)",
        "meta_object_id": "2020-017A",
        "meta_epoch": "2025-12-18T15:23:14.653248",
        "meta_mean_motion": 1.00273352,
        "meta_eccentricity": 0.0002097,
        "meta_inclination": 2.5076,
        "meta_ra_of_asc_node": 44.073,
        "meta_arg_of_pericenter": 235.8561,
        "meta_mean_anomaly": 118.4037,
        "meta_ephemeris_type": 0,
        "meta_classification_type": "U",
        "meta_norad_cat_id": 45344,
        "meta_element_set_no": 999,
        "meta_rev_at_epoch": 2144,
        "meta_bstar": 0,
        "meta_mean_motion_dot": -1.18e-06,
        "meta_mean_motion_ddot": 0,
        "tle_line1": "1 45344U 20017A   25352.64114182 -.00000118  00000+0  00000+0 0  9993",
        "tle_line2": "2 45344   2.5076  44.0730 0002097 235.8561 118.4037  1.00273352 21446"
      },
      "geometry": {
        "type": "Point",
        "coordinates": [
          161.80989462197408,
          2.225035240251098
        ]
      }
    },
    {
      "type": "Feature",
      "properties": {
        "norad_id": 45358,
        "name": "COSMOS 2545 (760)",
        "group": "gnss",
        "lat": -31.046639490805152,
        "lon": -57.98318505614692,
        "alt_km": 19126.60788453884,
        "timestamp": "2025-12-18T23:35:49.302343+00:00",
        "meta_object_name": "COSMOS 2545 (760)",
        "meta_object_id": "2020-018A",
        "meta_epoch": "2025-12-18T13:25:32.437344",
        "meta_mean_motion": 2.13102587,
        "meta_eccentricity": 0.0011599,
        "meta_inclination": 64.4659,
        "meta_ra_of_asc_node": 318.7651,
        "meta_arg_of_pericenter": 249.5065,
        "meta_mean_anomaly": 110.3601,
        "meta_ephemeris_type": 0,
        "meta_classification_type": "U",
        "meta_norad_cat_id": 45358,
        "meta_element_set_no": 999,
        "meta_rev_at_epoch": 4481,
        "meta_bstar": 0,
        "meta_mean_motion_dot": -6.4e-07,
        "meta_mean_motion_ddot": 0,
        "tle_line1": "1 45358U 20018A   25352.55940321 -.00000064  00000+0  00000+0 0  9991",
        "tle_line2": "2 45358  64.4659 318.7651 0011599 249.5065 110.3601  2.13102587 44816"
      },
      "geometry": {
        "type": "Point",
        "coordinates": [
          -57.98318505614692,
          -31.046639490805152
        ]
      }
    },
    {
      "type": "Feature",
      "properties": {
        "norad_id": 45807,
        "name": "BEIDOU-3 G3 (C61)",
        "group": "gnss",
        "lat": 1.6188775718068131,
        "lon": -167.611950857705,
        "alt_km": 35812.91382981688,
        "timestamp": "2025-12-18T23:35:49.302362+00:00",
        "meta_object_name": "BEIDOU-3 G3 (C61)",
        "meta_object_id": "2020-040A",
        "meta_epoch": "2025-12-18T15:53:28.851072",
        "meta_mean_motion": 1.00271392,
        "meta_eccentricity": 0.0006414,
        "meta_inclination": 2.0051,
        "meta_ra_of_asc_node": 66.6361,
        "meta_arg_of_pericenter": 309.2378,
        "meta_mean_anomaly": 60.5993,
        "meta_ephemeris_type": 0,
        "meta_classification_type": "U",
        "meta_norad_cat_id": 45807,
        "meta_element_set_no": 999,
        "meta_rev_at_epoch": 2026,
        "meta_bstar": 0,
        "meta_mean_motion_dot": -3.3e-06,
        "meta_mean_motion_ddot": 0,
        "tle_line1": "1 45807U 20040A   25352.66213948 -.00000330  00000+0  00000+0 0  9991",
        "tle_line2": "2 45807   2.0051  66.6361 0006414 309.2378  60.5993  1.00271392 20266"
      },
      "geometry": {
        "type": "Point",
        "coordinates": [
          -167.611950857705,
          1.6188775718068131
        ]
      }
    },
    {
      "type": "Feature",
      "properties": {
        "norad_id": 45854,
        "name": "GPS BIII-3  (PRN 23)",
        "group": "gnss",
        "lat": 6.569284905440147,
        "lon": -148.399625488803,
        "alt_km": 20044.3848981736,
        "timestamp": "2025-12-18T23:35:49.302441+00:00",
        "meta_object_name": "GPS BIII-3  (PRN 23)",
        "meta_object_id": "2020-041A",
        "meta_epoch": "2025-12-18T05:27:58.178880",
        "meta_mean_motion": 2.00562003,
        "meta_eccentricity": 0.0060605,
        "meta_inclination": 56.5506,
        "meta_ra_of_asc_node": 35.9719,
        "meta_arg_of_pericenter": 203.6022,
        "meta_mean_anomaly": 143.4254,
        "meta_ephemeris_type": 0,
        "meta_classification_type": "U",
        "meta_norad_cat_id": 45854,
        "meta_element_set_no": 999,
        "meta_rev_at_epoch": 4040,
        "meta_bstar": 0,
        "meta_mean_motion_dot": -7e-07,
        "meta_mean_motion_ddot": 0,
        "tle_line1": "1 45854U 20041A   25352.22775670 -.00000070  00000+0  00000+0 0  9992",
        "tle_line2": "2 45854  56.5506  35.9719 0060605 203.6022 143.4254  2.00562003 40400"
      },
      "geometry": {
        "type": "Point",
        "coordinates": [
          -148.399625488803,
          6.569284905440147
        ]
      }
    },
    {
      "type": "Feature",
      "properties": {
        "norad_id": 46114,
        "name": "GALAXY 30 (WAAS/PRN 135)",
        "group": "gnss",
        "lat": -0.017327876554920362,
        "lon": -43.191053966341805,
        "alt_km": 35779.85608607164,
        "timestamp": "2025-12-18T23:35:49.302454+00:00",
        "meta_object_name": "GALAXY 30 (WAAS/PRN 135)",
        "meta_object_id": "2020-056C",
        "meta_epoch": "2025-12-18T14:24:42.759360",
        "meta_mean_motion": 1.00272839,
        "meta_eccentricity": 0.00020166,
        "meta_inclination": 0.0022,
        "meta_ra_of_asc_node": 357.0524,
        "meta_arg_of_pericenter": 273.5592,
        "meta_mean_anomaly": 268.0359,
        "meta_ephemeris_type": 0,
        "meta_classification_type": "U",
        "meta_norad_cat_id": 46114,
        "meta_element_set_no": 999,
        "meta_rev_at_epoch": 1948,
        "meta_bstar": 0,
        "meta_mean_motion_dot": 6.2e-07,
        "meta_mean_motion_ddot": 0,
        "tle_line1": "1 46114U 20056C   25352.60049490  .00000062  00000+0  00000+0 0  9994",
        "tle_line2": "2 46114   0.0022 357.0524 0002016 273.5592 268.0359  1.00272839 19487"
      },
      "geometry": {
        "type": "Point",
        "coordinates": [
          -43.191053966341805,
          -0.017327876554920362
        ]
      }
    },
    {
      "type": "Feature",
      "properties": {
        "norad_id": 46805,
        "name": "COSMOS 2547 (705K)",
        "group": "gnss",
        "lat": -0.6629422119525014,
        "lon": 18.807354570208616,
        "alt_km": 19120.061212197226,
        "timestamp": "2025-12-18T23:35:49.302470+00:00",
        "meta_object_name": "COSMOS 2547 (705K)",
        "meta_object_id": "2020-075A",
        "meta_epoch": "2025-12-17T08:09:16.456320",
        "meta_mean_motion": 2.1310013,
        "meta_eccentricity": 0.0006169,
        "meta_inclination": 64.5962,
        "meta_ra_of_asc_node": 198.5429,
        "meta_arg_of_pericenter": 228.3795,
        "meta_mean_anomaly": 131.6499,
        "meta_ephemeris_type": 0,
        "meta_classification_type": "U",
        "meta_norad_cat_id": 46805,
        "meta_element_set_no": 999,
        "meta_rev_at_epoch": 4003,
        "meta_bstar": 0,
        "meta_mean_motion_dot": 1.12e-06,
        "meta_mean_motion_ddot": 0,
        "tle_line1": "1 46805U 20075A   25351.33977380  .00000112  00000+0  00000+0 0  9995",
        "tle_line2": "2 46805  64.5962 198.5429 0006169 228.3795 131.6499  2.13100130 40034"
      },
      "geometry": {
        "type": "Point",
        "coordinates": [
          18.807354570208616,
          -0.6629422119525014
        ]
      }
    },
    {
      "type": "Feature",
      "properties": {
        "norad_id": 46826,
        "name": "GPS BIII-4  (PRN 14)",
        "group": "gnss",
        "lat": 29.177155459828924,
        "lon": 14.17376201331709,
        "alt_km": 20092.909470892162,
        "timestamp": "2025-12-18T23:35:49.302481+00:00",
        "meta_object_name": "GPS BIII-4  (PRN 14)",
        "meta_object_id": "2020-078A",
        "meta_epoch": "2025-12-16T01:06:13.902336",
        "meta_mean_motion": 2.00566891,
        "meta_eccentricity": 0.00647554,
        "meta_inclination": 54.0145,
        "meta_ra_of_asc_node": 218.2068,
        "meta_arg_of_pericenter": 203.3828,
        "meta_mean_anomaly": 339.3936,
        "meta_ephemeris_type": 0,
        "meta_classification_type": "U",
        "meta_norad_cat_id": 46826,
        "meta_element_set_no": 999,
        "meta_rev_at_epoch": 3783,
        "meta_bstar": 0,
        "meta_mean_motion_dot": 6.7e-07,
        "meta_mean_motion_ddot": 0,
        "tle_line1": "1 46826U 20078A   25350.04599424  .00000067  00000+0  00000+0 0  9996",
        "tle_line2": "2 46826  54.0145 218.2068 0064755 203.3828 339.3936  2.00566891 37831"
      },
      "geometry": {
        "type": "Point",
        "coordinates": [
          14.17376201331709,
          29.177155459828924
        ]
      }
    }
  ]
}